ONEWEB-0417             
1 50492U 21132Z   25337.34141949 -.00000024  00000+0 -92550-4 0  9996
2 50492  87.9193  14.3655 0001576  99.8244 260.3066 13.18685231195790
ONEWEB-0418             
1 50493U 21132AA  25337.35116606  .00000070  00000+0  14548-3 0  9999
2 50493  87.9192  14.3479 0001334 105.2400 254.8880 13.18684768195855
ONEWEB-0419             
1 50494U 21132AB  25337.36946135  .00000102  00000+0  22602-3 0  9995
2 50494  87.9192  14.3441 0001486  92.3130 267.8172 13.18685180195777
ONEWEB-0420             
1 50495U 21132AC  25337.33480501 -.00000279  00000+0 -74147-3 0  9991
2 50495  87.9190  14.3627 0001928  94.0608 266.0745 13.18686805195763
ONEWEB-0421             
1 50496U 21132AD  25337.17646117  .00000039  00000+0  66570-4 0  9995
2 50496  87.9190  14.3874 0001955 104.2094 255.9255 13.18684875195781
ONEWEB-0424             
1 50497U 21132AE  25337.13688998  .00001127  00000+0  28247-2 0  9991
2 50497  87.9193  14.3918 0001561  85.6944 274.4366 13.18681180195801
ONEWEB-0426             
1 50498U 21132AF  25337.09728995  .00000013  00000+0 -84681-6 0  9991
2 50498  87.9192  14.3898 0001832 119.2351 240.8965 13.18685703195745
ONEWEB-0427             
1 50499U 21132AG  25337.36286668 -.00000011  00000+0 -61080-4 0  9993
2 50499  87.9190  14.3251 0001561 100.3020 259.8288 13.18686095195800
ONEWEB-0429             
1 50500U 21132AH  25337.34966582  .00000030  00000+0  42561-4 0  9996
2 50500  87.9190  14.3595 0001899  92.8320 267.3030 13.18685253195776
ONEWEB-0430             
1 50501U 21132AJ  25337.33812084 -.00000090  00000+0 -25997-3 0  9994
2 50501  87.9193  14.3572 0001754  86.9997 273.1336 13.18685095195812
ONEWEB-0432             
1 50502U 21132AK  25337.36997593  .00000069  00000+0  14163-3 0  9994
2 50502  87.9186  14.3233 0000876  92.4107 267.7125 13.18675917195770
ONEWEB-0440             
1 50503U 21132AL  25337.35791308  .00000005  00000+0 -19566-4 0  9994
2 50503  87.9192  14.3434 0002192  99.8211 260.3169 13.18684664195766
ONEWEB-0450             
1 50504U 21132AM  25337.35145564 -.00000004  00000+0 -42390-4 0  9993
2 50504  87.9185  14.3671 0001952  88.7914 271.3442 13.18687638195795
ONEWEB-0410             
1 51622U 22012A   25337.22602307  .00000058  00000+0  11726-3 0  9997
2 51622  87.9128  44.8089 0001509 154.4967 205.6239 13.17648370187897
ONEWEB-0411             
1 51623U 22012B   25337.30871122 -.00000608  00000+0 -17784-2 0  9992
2 51623  87.8812  75.3148 0001469  83.4898 276.6396 13.10372626183632
ONEWEB-0415             
1 51624U 22012C   25337.30539712 -.00000690  00000+0 -20131-2 0  9990
2 51624  87.8808  75.3175 0001478  94.2768 265.8528 13.10371544183639
ONEWEB-0416             
1 51625U 22012D   25337.31702113 -.00000384  00000+0 -11368-2 0  9991
2 51625  87.8809  75.3357 0001514 103.8920 256.2376 13.10375759183672
