[{"OBJECT_NAME":"ONEWEB-0417","OBJECT_ID":"2021-132Z","EPOCH":"2025-12-03T08:11:38.643936","MEAN_MOTION":13.18685231,"ECCENTRICITY":0.00015762,"INCLINATION":87.9193,"RA_OF_ASC_NODE":14.3655,"ARG_OF_PERICENTER":99.8244,"MEAN_ANOMALY":260.3066,"EPHEMERIS_TYPE":0,"CLASSIFICATION_TYPE":"U","NORAD_CAT_ID":50492,"ELEMENT_SET_NO":999,"REV_AT_EPOCH":19579,"BSTAR":-9.2550274e-5,"MEAN_MOTION_DOT":-2.4e-7,"MEAN_MOTION_DDOT":0},{"OBJECT_NAME":"ONEWEB-0418","OBJECT_ID":"2021-132AA","EPOCH":"2025-12-03T08:25:40.747584","MEAN_MOTION":13.18684768,"ECCENTRICITY":0.00013348,"INCLINATION":87.9192,"RA_OF_ASC_NODE":14.3479,"ARG_OF_PERICENTER":105.24,"MEAN_ANOMALY":254.888,"EPHEMERIS_TYPE":0,"CLASSIFICATION_TYPE":"U","NORAD_CAT_ID":50493,"ELEMENT_SET_NO":999,"REV_AT_EPOCH":19585,"BSTAR":0.00014547713,"MEAN_MOTION_DOT":7.0e-7,"MEAN_MOTION_DDOT":0},{"OBJECT_NAME":"ONEWEB-0419","OBJECT_ID":"2021-132AB","EPOCH":"2025-12-03T08:52:01.460640","MEAN_MOTION":13.1868518,"ECCENTRICITY":0.00014863,"INCLINATION":87.9192,"RA_OF_ASC_NODE":14.3441,"ARG_OF_PERICENTER":92.313,"MEAN_ANOMALY":267.8172,"EPHEMERIS_TYPE":0,"CLASSIFICATION_TYPE":"U","NORAD_CAT_ID":50494,"ELEMENT_SET_NO":999,"REV_AT_EPOCH":19577,"BSTAR":0.00022601688,"MEAN_MOTION_DOT":1.02e-6,"MEAN_MOTION_DDOT":0},{"OBJECT_NAME":"ONEWEB-0420","OBJECT_ID":"2021-132AC","EPOCH":"2025-12-03T08:02:07.152864","MEAN_MOTION":13.18686805,"ECCENTRICITY":0.00019285,"INCLINATION":87.919,"RA_OF_ASC_NODE":14.3627,"ARG_OF_PERICENTER":94.0608,"MEAN_ANOMALY":266.0745,"EPHEMERIS_TYPE":0,"CLASSIFICATION_TYPE":"U","NORAD_CAT_ID":50495,"ELEMENT_SET_NO":999,"REV_AT_EPOCH":19576,"BSTAR":-0.00074147409,"MEAN_MOTION_DOT":-2.79e-6,"MEAN_MOTION_DDOT":0},{"OBJECT_NAME":"ONEWEB-0421","OBJECT_ID":"2021-132AD","EPOCH":"2025-12-03T04:14:06.245088","MEAN_MOTION":13.18684875,"ECCENTRICITY":0.00019551,"INCLINATION":87.919,"RA_OF_ASC_NODE":14.3874,"ARG_OF_PERICENTER":104.2094,"MEAN_ANOMALY":255.9255,"EPHEMERIS_TYPE":0,"CLASSIFICATION_TYPE":"U","NORAD_CAT_ID":50496,"ELEMENT_SET_NO":999,"REV_AT_EPOCH":19578,"BSTAR":6.6569528e-5,"MEAN_MOTION_DOT":3.9e-7,"MEAN_MOTION_DDOT":0},{"OBJECT_NAME":"ONEWEB-0424","OBJECT_ID":"2021-132AE","EPOCH":"2025-12-03T03:17:07.294272","MEAN_MOTION":13.1868118,"ECCENTRICITY":0.00015612,"INCLINATION":87.9193,"RA_OF_ASC_NODE":14.3918,"ARG_OF_PERICENTER":85.6944,"MEAN_ANOMALY":274.4366,"EPHEMERIS_TYPE":0,"CLASSIFICATION_TYPE":"U","NORAD_CAT_ID":50497,"ELEMENT_SET_NO":999,"REV_AT_EPOCH":19580,"BSTAR":0.0028246927,"MEAN_MOTION_DOT":1.127e-5,"MEAN_MOTION_DDOT":0},{"OBJECT_NAME":"ONEWEB-0426","OBJECT_ID":"2021-132AF","EPOCH":"2025-12-03T02:20:05.851680","MEAN_MOTION":13.18685703,"ECCENTRICITY":0.00018325,"INCLINATION":87.9192,"RA_OF_ASC_NODE":14.3898,"ARG_OF_PERICENTER":119.2351,"MEAN_ANOMALY":240.8965,"EPHEMERIS_TYPE":0,"CLASSIFICATION_TYPE":"U","NORAD_CAT_ID":50498,"ELEMENT_SET_NO":999,"REV_AT_EPOCH":19574,"BSTAR":-8.46806e-7,"MEAN_MOTION_DOT":1.3e-7,"MEAN_MOTION_DDOT":0},{"OBJECT_NAME":"ONEWEB-0427","OBJECT_ID":"2021-132AG","EPOCH":"2025-12-03T08:42:31.681152","MEAN_MOTION":13.18686095,"ECCENTRICITY":0.00015618,"INCLINATION":87.919,"RA_OF_ASC_NODE":14.3251,"ARG_OF_PERICENTER":100.302,"MEAN_ANOMALY":259.8288,"EPHEMERIS_TYPE":0,"CLASSIFICATION_TYPE":"U","NORAD_CAT_ID":50499,"ELEMENT_SET_NO":999,"REV_AT_EPOCH":19580,"BSTAR":-6.1079572e-5,"MEAN_MOTION_DOT":-1.1e-7,"MEAN_MOTION_DDOT":0},{"OBJECT_NAME":"ONEWEB-0429","OBJECT_ID":"2021-132AH","EPOCH":"2025-12-03T08:23:31.126848","MEAN_MOTION":13.18685253,"ECCENTRICITY":0.00018998,"INCLINATION":87.919,"RA_OF_ASC_NODE":14.3595,"ARG_OF_PERICENTER":92.832,"MEAN_ANOMALY":267.303,"EPHEMERIS_TYPE":0,"CLASSIFICATION_TYPE":"U","NORAD_CAT_ID":50500,"ELEMENT_SET_NO":999,"REV_AT_EPOCH":19577,"BSTAR":4.2560857e-5,"MEAN_MOTION_DOT":3.0e-7,"MEAN_MOTION_DDOT":0},{"OBJECT_NAME":"ONEWEB-0430","OBJECT_ID":"2021-132AJ","EPOCH":"2025-12-03T08:06:53.640576","MEAN_MOTION":13.18685095,"ECCENTRICITY":0.00017545,"INCLINATION":87.9193,"RA_OF_ASC_NODE":14.3572,"ARG_OF_PERICENTER":86.9997,"MEAN_ANOMALY":273.1336,"EPHEMERIS_TYPE":0,"CLASSIFICATION_TYPE":"U","NORAD_CAT_ID":50501,"ELEMENT_SET_NO":999,"REV_AT_EPOCH":19581,"BSTAR":-0.00025996966,"MEAN_MOTION_DOT":-9.0e-7,"MEAN_MOTION_DDOT":0},{"OBJECT_NAME":"ONEWEB-0432","OBJECT_ID":"2021-132AK","EPOCH":"2025-12-03T08:52:45.920352","MEAN_MOTION":13.18675917,"ECCENTRICITY":8.76e-5,"INCLINATION":87.9186,"RA_OF_ASC_NODE":14.3233,"ARG_OF_PERICENTER":92.4107,"MEAN_ANOMALY":267.7125,"EPHEMERIS_TYPE":0,"CLASSIFICATION_TYPE":"U","NORAD_CAT_ID":50502,"ELEMENT_SET_NO":999,"REV_AT_EPOCH":19577,"BSTAR":0.00014162587,"MEAN_MOTION_DOT":6.9e-7,"MEAN_MOTION_DDOT":0},{"OBJECT_NAME":"ONEWEB-0440","OBJECT_ID":"2021-132AL","EPOCH":"2025-12-03T08:35:23.690112","MEAN_MOTION":13.18684664,"ECCENTRICITY":0.00021925,"INCLINATION":87.9192,"RA_OF_ASC_NODE":14.3434,"ARG_OF_PERICENTER":99.8211,"MEAN_ANOMALY":260.3169,"EPHEMERIS_TYPE":0,"CLASSIFICATION_TYPE":"U","NORAD_CAT_ID":50503,"ELEMENT_SET_NO":999,"REV_AT_EPOCH":19576,"BSTAR":-1.9566059e-5,"MEAN_MOTION_DOT":5.0e-8,"MEAN_MOTION_DDOT":0},{"OBJECT_NAME":"ONEWEB-0450","OBJECT_ID":"2021-132AM","EPOCH":"2025-12-03T08:26:05.767296","MEAN_MOTION":13.18687638,"ECCENTRICITY":0.00019526,"INCLINATION":87.9185,"RA_OF_ASC_NODE":14.3671,"ARG_OF_PERICENTER":88.7914,"MEAN_ANOMALY":271.3442,"EPHEMERIS_TYPE":0,"CLASSIFICATION_TYPE":"U","NORAD_CAT_ID":50504,"ELEMENT_SET_NO":999,"REV_AT_EPOCH":19579,"BSTAR":-4.2390358e-5,"MEAN_MOTION_DOT":-4.0e-8,"MEAN_MOTION_DDOT":0},{"OBJECT_NAME":"ONEWEB-0410","OBJECT_ID":"2022-012A","EPOCH":"2025-12-03T05:25:28.393248","MEAN_MOTION":13.1764837,"ECCENTRICITY":0.00015093,"INCLINATION":87.9128,"RA_OF_ASC_NODE":44.8089,"ARG_OF_PERICENTER":154.4967,"MEAN_ANOMALY":205.6239,"EPHEMERIS_TYPE":0,"CLASSIFICATION_TYPE":"U","NORAD_CAT_ID":51622,"ELEMENT_SET_NO":999,"REV_AT_EPOCH":18789,"BSTAR":0.0001172551,"MEAN_MOTION_DOT":5.8e-7,"MEAN_MOTION_DDOT":0},{"OBJECT_NAME":"ONEWEB-0411","OBJECT_ID":"2022-012B","EPOCH":"2025-12-03T07:24:32.649408","MEAN_MOTION":13.10372626,"ECCENTRICITY":0.00014696,"INCLINATION":87.8812,"RA_OF_ASC_NODE":75.3148,"ARG_OF_PERICENTER":83.4898,"MEAN_ANOMALY":276.6396,"EPHEMERIS_TYPE":0,"CLASSIFICATION_TYPE":"U","NORAD_CAT_ID":51623,"ELEMENT_SET_NO":999,"REV_AT_EPOCH":18363,"BSTAR":-0.0017783518,"MEAN_MOTION_DOT":-6.08e-6,"MEAN_MOTION_DDOT":0},{"OBJECT_NAME":"ONEWEB-0415","OBJECT_ID":"2022-012C","EPOCH":"2025-12-03T07:19:46.311168","MEAN_MOTION":13.10371544,"ECCENTRICITY":0.00014784,"INCLINATION":87.8808,"RA_OF_ASC_NODE":75.3175,"ARG_OF_PERICENTER":94.2768,"MEAN_ANOMALY":265.8528,"EPHEMERIS_TYPE":0,"CLASSIFICATION_TYPE":"U","NORAD_CAT_ID":51624,"ELEMENT_SET_NO":999,"REV_AT_EPOCH":18363,"BSTAR":-0.0020130945,"MEAN_MOTION_DOT":-6.9e-6,"MEAN_MOTION_DDOT":0},{"OBJECT_NAME":"ONEWEB-0416","OBJECT_ID":"2022-012D","EPOCH":"2025-12-03T07:36:30.625632","MEAN_MOTION":13.10375759,"ECCENTRICITY":0.00015142,"INCLINATION":87.8809,"RA_OF_ASC_NODE":75.3357,"ARG_OF_PERICENTER":103.892,"MEAN_ANOMALY":256.2376,"EPHEMERIS_TYPE":0,"CLASSIFICATION_TYPE":"U","NORAD_CAT_ID":51625,"ELEMENT_SET_NO":999,"REV_AT_EPOCH":18367,"BSTAR":-0.001136838,"MEAN_MOTION_DOT":-3.84e-6,"MEAN_MOTION_DDOT":0}]
